{"type": "FeatureCollection", "features": [ {"type": "Feature", "properties": {"norad_id": 35469, "name": "COSMOS 2251 DEB", "group": "cosmos-2251-debris", "lat": -22.67758295032877, "lon": -169.14316474250302, "alt_km": 693.7823921268728, "timestamp": "2025-12-23T07:45:09.801336+00:00", "meta": {"OBJECT_NAME": "COSMOS 2251 DEB", "OBJECT_ID": "1993-036ALP", "EPOCH": "2025-12-20T07:36:40.266144", "MEAN_MOTION": 14.4982565, "ECCENTRICITY": 0.00765645, "INCLINATION": 74.0168, "RA_OF_ASC_NODE": 9.6263, "ARG_OF_PERICENTER": 163.1432, "MEAN_ANOMALY": 197.23, "EPHEMERIS_TYPE": 0, "CLASSIFICATION_TYPE": "U", "NORAD_CAT_ID": 35469, "ELEMENT_SET_NO": 999, "REV_AT_EPOCH": 88221, "BSTAR": 6.7527967e-05, "MEAN_MOTION_DOT": 2.41e-06, "MEAN_MOTION_DDOT": 0}, "tle": {"line1": "1 35469U 93036ALP 25354.31713271  .00000241  00000+0  67528-4 0  9990", "line2": "2 35469  74.0168   9.6263 0076564 163.1432 197.2300 14.49825650882216"}}, "geometry": {"type": "Point", "coordinates": [-169.14316474250302, -22.67758295032877]}}, {"type": "Feature", "properties": {"norad_id": 35475, "name": "COSMOS 2251 DEB", "group": "cosmos-2251-debris", "lat": 72.26094768378412, "lon": -98.50183520325311, "alt_km": 660.976218244803, "timestamp": "2025-12-23T07:45:09.801346+00:00", "meta": {"OBJECT_NAME": "COSMOS 2251 DEB", "OBJECT_ID": "1993-036ALV", "EPOCH": "2025-12-22T16:36:26.868096", "MEAN_MOTION": 14.69928525, "ECCENTRICITY": 0.00201226, "INCLINATION": 74.022, "RA_OF_ASC_NODE": 146.318, "ARG_OF_PERICENTER": 219.0346, "MEAN_ANOMALY": 140.9374, "EPHEMERIS_TYPE": 0, "CLASSIFICATION_TYPE": "U", "NORAD_CAT_ID": 35475, "ELEMENT_SET_NO": 999, "REV_AT_EPOCH": 65763, "BSTAR": 0.0020453199, "MEAN_MOTION_DOT": 0.00012275, "MEAN_MOTION_DDOT": 0}, "tle": {"line1": "1 35475U 93036ALV 25356.69197764  .00012275  00000+0  20453-2 0  9997", "line2": "2 35475  74.0220 146.3180 0020122 219.0346 140.9374 14.69928525657632"}}, "geometry": {"type": "Point", "coordinates": [-98.50183520325311, 72.26094768378412]}}, {"type": "Feature", "properties": {"norad_id": 35476, "name": "COSMOS 2251 DEB", "group": "cosmos-2251-debris", "lat": 9.070148369150342, "lon": -142.4951172068211, "alt_km": 655.2444445860165, "timestamp": "2025-12-23T07:45:09.801356+00:00", "meta": {"OBJECT_NAME": "COSMOS 2251 DEB", "OBJECT_ID": "1993-036ALW", "EPOCH": "2025-12-22T13:45:48.233952", "MEAN_MOTION": 14.75861708, "ECCENTRICITY": 0.00182953, "INCLINATION": 73.9776, "RA_OF_ASC_NODE": 41.6056, "ARG_OF_PERICENTER": 18.7037, "MEAN_ANOMALY": 130.8164, "EPHEMERIS_TYPE": 0, "CLASSIFICATION_TYPE": "U", "NORAD_CAT_ID": 35476, "ELEMENT_SET_NO": 999, "REV_AT_EPOCH": 88032, "BSTAR": 0.0016082862, "MEAN_MOTION_DOT": 0.00011054, "MEAN_MOTION_DDOT": 0}, "tle": {"line1": "1 35476U 93036ALW 25356.57347493  .00011054  00000+0  16083-2 0  9999", "line2": "2 35476  73.9776  41.6056 0018295  18.7037 130.8164 14.75861708880320"}}, "geometry": {"type": "Point", "coordinates": [-142.4951172068211, 9.070148369150342]}}, {"type": "Feature", "properties": {"norad_id": 35580, "name": "COSMOS 2251 DEB", "group": "cosmos-2251-debris", "lat": 10.333007043322594, "lon": 163.74266831665352, "alt_km": 1133.3207215723032, "timestamp": "2025-12-23T07:45:09.801366+00:00", "meta": {"OBJECT_NAME": "COSMOS 2251 DEB", "OBJECT_ID": "1993-036ALX", "EPOCH": "2025-12-22T19:33:13.925664", "MEAN_MOTION": 13.83921158, "ECCENTRICITY": 0.0280776, "INCLINATION": 73.9007, "RA_OF_ASC_NODE": 161.5885, "ARG_OF_PERICENTER": 164.8747, "MEAN_ANOMALY": 196.0996, "EPHEMERIS_TYPE": 0, "CLASSIFICATION_TYPE": "U", "NORAD_CAT_ID": 35580, "ELEMENT_SET_NO": 999, "REV_AT_EPOCH": 62396, "BSTAR": 0.0019852622, "MEAN_MOTION_DOT": 2.966e-05, "MEAN_MOTION_DDOT": 0}, "tle": {"line1": "1 35580U 93036ALX 25356.81474451  .00002966  00000+0  19853-2 0  9997", "line2": "2 35580  73.9007 161.5885 0280776 164.8747 196.0996 13.83921158623967"}}, "geometry": {"type": "Point", "coordinates": [163.74266831665352, 10.333007043322594]}}, {"type": "Feature", "properties": {"norad_id": 35583, "name": "COSMOS 2251 DEB", "group": "cosmos-2251-debris", "lat": 56.0106445352043, "lon": -139.8008916812874, "alt_km": 1309.7187181581276, "timestamp": "2025-12-23T07:45:09.801375+00:00", "meta": {"OBJECT_NAME": "COSMOS 2251 DEB", "OBJECT_ID": "1993-036AMA", "EPOCH": "2025-12-22T06:38:14.014176", "MEAN_MOTION": 13.55351852, "ECCENTRICITY": 0.03850357, "INCLINATION": 73.9158, "RA_OF_ASC_NODE": 196.56, "ARG_OF_PERICENTER": 219.1539, "MEAN_ANOMALY": 138.1132, "EPHEMERIS_TYPE": 0, "CLASSIFICATION_TYPE": "U", "NORAD_CAT_ID": 35583, "ELEMENT_SET_NO": 999, "REV_AT_EPOCH": 82541, "BSTAR": 0.00079490953, "MEAN_MOTION_DOT": 8.63e-06, "MEAN_MOTION_DDOT": 0}, "tle": {"line1": "1 35583U 93036AMA 25356.27655109  .00000863  00000+0  79491-3 0  9990", "line2": "2 35583  73.9158 196.5600 0385035 219.1539 138.1132 13.55351852825417"}}, "geometry": {"type": "Point", "coordinates": [-139.8008916812874, 56.0106445352043]}}, {"type": "Feature", "properties": {"norad_id": 35585, "name": "COSMOS 2251 DEB", "group": "cosmos-2251-debris", "lat": 51.51751225107262, "lon": -8.058884275152751, "alt_km": 1202.5181643956676, "timestamp": "2025-12-23T07:45:09.801386+00:00", "meta": {"OBJECT_NAME": "COSMOS 2251 DEB", "OBJECT_ID": "1993-036AMC", "EPOCH": "2025-12-21T09:07:18.442848", "MEAN_MOTION": 13.75269672, "ECCENTRICITY": 0.03103986, "INCLINATION": 73.9717, "RA_OF_ASC_NODE": 333.9847, "ARG_OF_PERICENTER": 244.5384, "MEAN_ANOMALY": 273.7703, "EPHEMERIS_TYPE": 0, "CLASSIFICATION_TYPE": "U", "NORAD_CAT_ID": 35585, "ELEMENT_SET_NO": 999, "REV_AT_EPOCH": 64182, "BSTAR": 0.00073727274, "MEAN_MOTION_DOT": 9.8e-06, "MEAN_MOTION_DDOT": 0}, "tle": {"line1": "1 35585U 93036AMC 25355.38007457  .00000980  00000+0  73727-3 0  9996", "line2": "2 35585  73.9717 333.9847 0310398 244.5384 273.7703 13.75269672641821"}}, "geometry": {"type": "Point", "coordinates": [-8.058884275152751, 51.51751225107262]}}, {"type": "Feature", "properties": {"norad_id": 35586, "name": "COSMOS 2251 DEB", "group": "cosmos-2251-debris", "lat": 68.82637014921525, "lon": -26.76608373528841, "alt_km": 1007.1505777396187, "timestamp": "2025-12-23T07:45:09.801396+00:00", "meta": {"OBJECT_NAME": "COSMOS 2251 DEB", "OBJECT_ID": "1993-036AMD", "EPOCH": "2025-12-18T14:35:36.885984", "MEAN_MOTION": 13.5208875, "ECCENTRICITY": 0.04044314, "INCLINATION": 74.0204, "RA_OF_ASC_NODE": 293.076, "ARG_OF_PERICENTER": 167.1463, "MEAN_ANOMALY": 11.7227, "EPHEMERIS_TYPE": 0, "CLASSIFICATION_TYPE": "U", "NORAD_CAT_ID": 35586, "ELEMENT_SET_NO": 999, "REV_AT_EPOCH": 60461, "BSTAR": 0.00023975249, "MEAN_MOTION_DOT": 2.44e-06, "MEAN_MOTION_DDOT": 0}, "tle": {"line1": "1 35586U 93036AMD 25352.60806581  .00000244  00000+0  23975-3 0  9997", "line2": "2 35586  74.0204 293.0760 0404431 167.1463  11.7227 13.52088750604613"}}, "geometry": {"type": "Point", "coordinates": [-26.76608373528841, 68.82637014921525]}}, {"type": "Feature", "properties": {"norad_id": 35587, "name": "COSMOS 2251 DEB", "group": "cosmos-2251-debris", "lat": 4.67497631285518, "lon": -143.53016461259375, "alt_km": 609.6187748090406, "timestamp": "2025-12-23T07:45:09.801406+00:00", "meta": {"OBJECT_NAME": "COSMOS 2251 DEB", "OBJECT_ID": "1993-036AME", "EPOCH": "2025-12-21T20:41:18.597984", "MEAN_MOTION": 14.71550847, "ECCENTRICITY": 0.01023219, "INCLINATION": 74.0051, "RA_OF_ASC_NODE": 40.6582, "ARG_OF_PERICENTER": 226.293, "MEAN_ANOMALY": 132.9734, "EPHEMERIS_TYPE": 0, "CLASSIFICATION_TYPE": "U", "NORAD_CAT_ID": 35587, "ELEMENT_SET_NO": 999, "REV_AT_EPOCH": 66480, "BSTAR": 0.00023978572, "MEAN_MOTION_DOT": 1.58e-05, "MEAN_MOTION_DDOT": 0}, "tle": {"line1": "1 35587U 93036AME 25355.86202081  .00001580  00000+0  23979-3 0  9992", "line2": "2 35587  74.0051  40.6582 0102321 226.2930 132.9734 14.71550847664800"}}, "geometry": {"type": "Point", "coordinates": [-143.53016461259375, 4.67497631285518]}}, {"type": "Feature", "properties": {"norad_id": 35593, "name": "COSMOS 2251 DEB", "group": "cosmos-2251-debris", "lat": 0.5609215522424819, "lon": -90.4391408883612, "alt_km": 804.4257864970414, "timestamp": "2025-12-23T07:45:09.801416+00:00", "meta": {"OBJECT_NAME": "COSMOS 2251 DEB", "OBJECT_ID": "1993-036AML", "EPOCH": "2025-12-22T03:07:10.854336", "MEAN_MOTION": 14.25629866, "ECCENTRICITY": 0.01050344, "INCLINATION": 74.0862, "RA_OF_ASC_NODE": 271.5473, "ARG_OF_PERICENTER": 275.9355, "MEAN_ANOMALY": 82.9829, "EPHEMERIS_TYPE": 0, "CLASSIFICATION_TYPE": "U", "NORAD_CAT_ID": 35593, "ELEMENT_SET_NO": 999, "REV_AT_EPOCH": 85199, "BSTAR": 0.00065796608, "MEAN_MOTION_DOT": 1.626e-05, "MEAN_MOTION_DDOT": 0}, "tle": {"line1": "1 35593U 93036AML 25356.12998674  .00001626  00000+0  65797-3 0  9994", "line2": "2 35593  74.0862 271.5473 0105034 275.9355  82.9829 14.25629866851991"}}, "geometry": {"type": "Point", "coordinates": [-90.4391408883612, 0.5609215522424819]}}, {"type": "Feature", "properties": {"norad_id": 35594, "name": "COSMOS 2251 DEB", "group": "cosmos-2251-debris", "lat": 18.52161402816799, "lon": -100.45513586769921, "alt_km": 587.0297686201666, "timestamp": "2025-12-23T07:45:09.801426+00:00", "meta": {"OBJECT_NAME": "COSMOS 2251 DEB", "OBJECT_ID": "1993-036AMM", "EPOCH": "2025-12-21T13:05:05.165088", "MEAN_MOTION": 14.8817141, "ECCENTRICITY": 0.0029279, "INCLINATION": 73.8068, "RA_OF_ASC_NODE": 88.7269, "ARG_OF_PERICENTER": 201.0189, "MEAN_ANOMALY": 158.9789, "EPHEMERIS_TYPE": 0, "CLASSIFICATION_TYPE": "U", "NORAD_CAT_ID": 35594, "ELEMENT_SET_NO": 999, "REV_AT_EPOCH": 88316, "BSTAR": 0.0013268, "MEAN_MOTION_DOT": 0.00012311, "MEAN_MOTION_DDOT": 0}, "tle": {"line1": "1 35594U 93036AMM 25355.54519867  .00012311  00000+0  13268-2 0  9991", "line2": "2 35594  73.8068  88.7269 0029279 201.0189 158.9789 14.88171410883168"}}, "geometry": {"type": "Point", "coordinates": [-100.45513586769921, 18.52161402816799]}}]}